[{"OBJECT_NAME":"STARLINK-3529","OBJECT_ID":"2022-016L","EPOCH":"2026-03-09T23:18:46.314432","MEAN_MOTION":15.08837185,"ECCENTRICITY":0.00010438,"INCLINATION":53.2186,"RA_OF_ASC_NODE":327.8582,"ARG_OF_PERICENTER":82.4452,"MEAN_ANOMALY":277.6659,"EPHEMERIS_TYPE":0,"CLASSIFICATION_TYPE":"U","NORAD_CAT_ID":51724,"ELEMENT_SET_NO":999,"REV_AT_EPOCH":22346,"BSTAR":7.1330189e-5,"MEAN_MOTION_DOT":8.48e-6,"MEAN_MOTION_DDOT":0},{"OBJECT_NAME":"TIANPING 2C","OBJECT_ID":"2022-032D","EPOCH":"2026-03-09T22:24:23.522112","MEAN_MOTION":15.10225163,"ECCENTRICITY":0.00079422,"INCLINATION":97.5961,"RA_OF_ASC_NODE":122.1196,"ARG_OF_PERICENTER":128.8925,"MEAN_ANOMALY":231.3013,"EPHEMERIS_TYPE":0,"CLASSIFICATION_TYPE":"U","NORAD_CAT_ID":52156,"ELEMENT_SET_NO":999,"REV_AT_EPOCH":21586,"BSTAR":0.00036090623,"MEAN_MOTION_DOT":5.841e-5,"MEAN_MOTION_DDOT":0}]
